[{"OBJECT_NAME":"ICEYE-X7","OBJECT_ID":"2020-068L","EPOCH":"2026-03-09T22:52:28.702272","MEAN_MOTION":15.29152508,"ECCENTRICITY":0.00068409,"INCLINATION":97.7412,"RA_OF_ASC_NODE":31.2076,"ARG_OF_PERICENTER":332.3045,"MEAN_ANOMALY":27.7829,"EPHEMERIS_TYPE":0,"CLASSIFICATION_TYPE":"U","NORAD_CAT_ID":46496,"ELEMENT_SET_NO":999,"REV_AT_EPOCH":29961,"BSTAR":0.0005654802,"MEAN_MOTION_DOT":0.00015947,"MEAN_MOTION_DDOT":0},{"OBJECT_NAME":"STARLINK-31503","OBJECT_ID":"2024-045Y","EPOCH":"2026-03-09T02:35:56.243040","MEAN_MOTION":15.27574504,"ECCENTRICITY":0.00012076,"INCLINATION":43.0001,"RA_OF_ASC_NODE":95.7225,"ARG_OF_PERICENTER":282.5756,"MEAN_ANOMALY":77.496,"EPHEMERIS_TYPE":0,"CLASSIFICATION_TYPE":"U","NORAD_CAT_ID":59200,"ELEMENT_SET_NO":999,"REV_AT_EPOCH":11307,"BSTAR":-3.563544e-5,"MEAN_MOTION_DOT":-1.242e-5,"MEAN_MOTION_DDOT":0}]
